[{"OBJECT_NAME":"FORMOSAT 7-4","OBJECT_ID":"2019-036M","EPOCH":"2026-03-09T23:18:59.695200","MEAN_MOTION":14.96015542,"ECCENTRICITY":0.00014118,"INCLINATION":23.9994,"RA_OF_ASC_NODE":43.1446,"ARG_OF_PERICENTER":104.6737,"MEAN_ANOMALY":255.392,"EPHEMERIS_TYPE":0,"CLASSIFICATION_TYPE":"U","NORAD_CAT_ID":44350,"ELEMENT_SET_NO":999,"REV_AT_EPOCH":36919,"BSTAR":0.00031042546,"MEAN_MOTION_DOT":3.87e-5,"MEAN_MOTION_DDOT":0},{"OBJECT_NAME":"STARLINK-3055","OBJECT_ID":"2021-082H","EPOCH":"2026-03-09T22:44:47.834304","MEAN_MOTION":14.97523817,"ECCENTRICITY":0.00024398,"INCLINATION":69.9982,"RA_OF_ASC_NODE":274.5904,"ARG_OF_PERICENTER":272.3196,"MEAN_ANOMALY":87.7683,"EPHEMERIS_TYPE":0,"CLASSIFICATION_TYPE":"U","NORAD_CAT_ID":49137,"ELEMENT_SET_NO":999,"REV_AT_EPOCH":24649,"BSTAR":-3.6006416e-5,"MEAN_MOTION_DOT":-5.13e-6,"MEAN_MOTION_DDOT":0}]
